CCSDS_OMM_VERS = 2.0
CREATION_DATE  = 
ORIGINATOR     = 

OBJECT_NAME    = CZ-2D R/B
OBJECT_ID      = 2005-024B
CENTER_NAME    = EARTH
REF_FRAME      = TEME
TIME_SYSTEM    = UTC
MEAN_ELEMENT_THEORY = SGP/SGP4

EPOCH          = 2025-11-24T13:06:26.997984
MEAN_MOTION    = 15.51954651
ECCENTRICITY   = .0007967
INCLINATION    = 97.3644
RA_OF_ASC_NODE = 335.5337
ARG_OF_PERICENTER = 59.3400
MEAN_ANOMALY   = 300.8636

EPHEMERIS_TYPE = 0
CLASSIFICATION_TYPE = U
NORAD_CAT_ID   = 28738
ELEMENT_SET_NO = 999
REV_AT_EPOCH   = 12343
BSTAR          = .47661E-3
MEAN_MOTION_DOT = .28625E-3
MEAN_MOTION_DDOT = 0

CCSDS_OMM_VERS = 2.0
CREATION_DATE  = 
ORIGINATOR     = 

OBJECT_NAME    = ALOS (DAICHI)
OBJECT_ID      = 2006-002A
CENTER_NAME    = EARTH
REF_FRAME      = TEME
TIME_SYSTEM    = UTC
MEAN_ELEMENT_THEORY = SGP/SGP4

EPOCH          = 2025-11-24T18:52:56.235072
MEAN_MOTION    = 14.69403849
ECCENTRICITY   = .0000758
INCLINATION    = 98.1068
RA_OF_ASC_NODE = 280.4044
ARG_OF_PERICENTER = 73.5977
MEAN_ANOMALY   = 286.5312

EPHEMERIS_TYPE = 0
CLASSIFICATION_TYPE = U
NORAD_CAT_ID   = 28931
ELEMENT_SET_NO = 999
REV_AT_EPOCH   = 5807
BSTAR          = .30194E-3
MEAN_MOTION_DOT = .1737E-4
MEAN_MOTION_DDOT = 0

CCSDS_OMM_VERS = 2.0
CREATION_DATE  = 
ORIGINATOR     = 

OBJECT_NAME    = H-2A R/B
OBJECT_ID      = 2006-002B
CENTER_NAME    = EARTH
REF_FRAME      = TEME
TIME_SYSTEM    = UTC
MEAN_ELEMENT_THEORY = SGP/SGP4

EPOCH          = 2025-11-24T14:43:37.682112
MEAN_MOTION    = 15.14041468
ECCENTRICITY   = .0054412
INCLINATION    = 98.2313
RA_OF_ASC_NODE = 101.8909
ARG_OF_PERICENTER = 238.1114
MEAN_ANOMALY   = 121.4815

EPHEMERIS_TYPE = 0
CLASSIFICATION_TYPE = U
NORAD_CAT_ID   = 28932
ELEMENT_SET_NO = 999
REV_AT_EPOCH   = 7852
BSTAR          = .56026E-3
MEAN_MOTION_DOT = .10491E-3
MEAN_MOTION_DDOT = 0

CCSDS_OMM_VERS = 2.0
CREATION_DATE  = 
ORIGINATOR     = 

OBJECT_NAME    = RESURS-DK 1
OBJECT_ID      = 2006-021A
CENTER_NAME    = EARTH
REF_FRAME      = TEME
TIME_SYSTEM    = UTC
MEAN_ELEMENT_THEORY = SGP/SGP4

EPOCH          = 2025-11-24T18:29:43.048032
MEAN_MOTION    = 15.12005668
ECCENTRICITY   = .0007399
INCLINATION    = 69.9306
RA_OF_ASC_NODE = 148.2682
ARG_OF_PERICENTER = 272.0977
MEAN_ANOMALY   = 87.9342

EPHEMERIS_TYPE = 0
CLASSIFICATION_TYPE = U
NORAD_CAT_ID   = 29228
ELEMENT_SET_NO = 999
REV_AT_EPOCH   = 7166
BSTAR          = .18868E-3
MEAN_MOTION_DOT = .3143E-4
MEAN_MOTION_DDOT = 0

CCSDS_OMM_VERS = 2.0
CREATION_DATE  = 
ORIGINATOR     = 

OBJECT_NAME    = CZ-4B R/B
OBJECT_ID      = 2006-046C
CENTER_NAME    = EARTH
REF_FRAME      = TEME
TIME_SYSTEM    = UTC
MEAN_ELEMENT_THEORY = SGP/SGP4

EPOCH          = 2025-11-24T16:19:59.679840
MEAN_MOTION    = 15.15606531
ECCENTRICITY   = .0032575
INCLINATION    = 97.5753
RA_OF_ASC_NODE = 8.8686
ARG_OF_PERICENTER = 271.1684
MEAN_ANOMALY   = 88.5816

EPHEMERIS_TYPE = 0
CLASSIFICATION_TYPE = U
NORAD_CAT_ID   = 29507
ELEMENT_SET_NO = 999
REV_AT_EPOCH   = 4413
BSTAR          = .28982E-3
MEAN_MOTION_DOT = .5508E-4
MEAN_MOTION_DDOT = 0

CCSDS_OMM_VERS = 2.0
CREATION_DATE  = 
ORIGINATOR     = 

OBJECT_NAME    = CZ-2C R/B
OBJECT_ID      = 2007-010B
CENTER_NAME    = EARTH
REF_FRAME      = TEME
TIME_SYSTEM    = UTC
MEAN_ELEMENT_THEORY = SGP/SGP4

EPOCH          = 2025-11-24T14:41:44.491200
MEAN_MOTION    = 14.20198616
ECCENTRICITY   = .0058077
INCLINATION    = 98.3970
RA_OF_ASC_NODE = 82.1762
ARG_OF_PERICENTER = 239.1291
MEAN_ANOMALY   = 120.4166

EPHEMERIS_TYPE = 0
CLASSIFICATION_TYPE = U
NORAD_CAT_ID   = 31114
ELEMENT_SET_NO = 999
REV_AT_EPOCH   = 96480
BSTAR          = .11119E-3
MEAN_MOTION_DOT = .2E-5
MEAN_MOTION_DDOT = 0

CCSDS_OMM_VERS = 2.0
CREATION_DATE  = 
ORIGINATOR     = 

OBJECT_NAME    = COSMO-SKYMED 1
OBJECT_ID      = 2007-023A
CENTER_NAME    = EARTH
REF_FRAME      = TEME
TIME_SYSTEM    = UTC
MEAN_ELEMENT_THEORY = SGP/SGP4

EPOCH          = 2025-11-24T20:36:26.890848
MEAN_MOTION    = 14.95568669
ECCENTRICITY   = .0001309
INCLINATION    = 97.8840
RA_OF_ASC_NODE = 154.1427
ARG_OF_PERICENTER = 91.7801
MEAN_ANOMALY   = 268.3569

EPHEMERIS_TYPE = 0
CLASSIFICATION_TYPE = U
NORAD_CAT_ID   = 31598
ELEMENT_SET_NO = 999
REV_AT_EPOCH   = 99922
BSTAR          = .3973E-3
MEAN_MOTION_DOT = .4349E-4
MEAN_MOTION_DDOT = 0

CCSDS_OMM_VERS = 2.0
CREATION_DATE  = 
ORIGINATOR     = 

OBJECT_NAME    = COSMOS 2428
OBJECT_ID      = 2007-029A
CENTER_NAME    = EARTH
REF_FRAME      = TEME
TIME_SYSTEM    = UTC
MEAN_ELEMENT_THEORY = SGP/SGP4

EPOCH          = 2025-11-24T16:26:14.254080
MEAN_MOTION    = 14.12886697
ECCENTRICITY   = .0002693
INCLINATION    = 70.9371
RA_OF_ASC_NODE = 63.7854
ARG_OF_PERICENTER = 52.9217
MEAN_ANOMALY   = 307.2150

EPHEMERIS_TYPE = 0
CLASSIFICATION_TYPE = U
NORAD_CAT_ID   = 31792
ELEMENT_SET_NO = 999
REV_AT_EPOCH   = 94926
BSTAR          = -.3597E-4
MEAN_MOTION_DOT = -.115E-5
MEAN_MOTION_DDOT = 0

CCSDS_OMM_VERS = 2.0
CREATION_DATE  = 
ORIGINATOR     = 

OBJECT_NAME    = SL-16 R/B
OBJECT_ID      = 2007-029B
CENTER_NAME    = EARTH
REF_FRAME      = TEME
TIME_SYSTEM    = UTC
MEAN_ELEMENT_THEORY = SGP/SGP4

EPOCH          = 2025-11-24T15:54:52.697088
MEAN_MOTION    = 14.14816879
ECCENTRICITY   = .0002352
INCLINATION    = 70.9778
RA_OF_ASC_NODE = 33.1554
ARG_OF_PERICENTER = 265.3923
MEAN_ANOMALY   = 257.3160

EPHEMERIS_TYPE = 0
CLASSIFICATION_TYPE = U
NORAD_CAT_ID   = 31793
ELEMENT_SET_NO = 999
REV_AT_EPOCH   = 95051
BSTAR          = .46195E-4
MEAN_MOTION_DOT = .41E-6
MEAN_MOTION_DDOT = 0

CCSDS_OMM_VERS = 2.0
CREATION_DATE  = 
ORIGINATOR     = 

OBJECT_NAME    = KORONAS-FOTON
OBJECT_ID      = 2009-003A
CENTER_NAME    = EARTH
REF_FRAME      = TEME
TIME_SYSTEM    = UTC
MEAN_ELEMENT_THEORY = SGP/SGP4

EPOCH          = 2025-11-24T15:16:13.125792
MEAN_MOTION    = 15.40617320
ECCENTRICITY   = .0011941
INCLINATION    = 82.4322
RA_OF_ASC_NODE = 24.8546
ARG_OF_PERICENTER = 168.4802
MEAN_ANOMALY   = 191.6720

EPHEMERIS_TYPE = 0
CLASSIFICATION_TYPE = U
NORAD_CAT_ID   = 33504
ELEMENT_SET_NO = 999
REV_AT_EPOCH   = 92955
BSTAR          = .35757E-3
MEAN_MOTION_DOT = .14635E-3
MEAN_MOTION_DDOT = 0

CCSDS_OMM_VERS = 2.0
CREATION_DATE  = 
ORIGINATOR     = 

OBJECT_NAME    = CZ-2C R/B
OBJECT_ID      = 2011-030B
CENTER_NAME    = EARTH
REF_FRAME      = TEME
TIME_SYSTEM    = UTC
MEAN_ELEMENT_THEORY = SGP/SGP4

EPOCH          = 2025-11-24T11:52:45.714720
MEAN_MOTION    = 14.80807006
ECCENTRICITY   = .005238
INCLINATION    = 97.8390
RA_OF_ASC_NODE = 283.0092
ARG_OF_PERICENTER = 334.3930
MEAN_ANOMALY   = 139.8858

EPHEMERIS_TYPE = 0
CLASSIFICATION_TYPE = U
NORAD_CAT_ID   = 37731
ELEMENT_SET_NO = 999
REV_AT_EPOCH   = 77452
BSTAR          = .2474E-3
MEAN_MOTION_DOT = .1898E-4
MEAN_MOTION_DDOT = 0

CCSDS_OMM_VERS = 2.0
CREATION_DATE  = 
ORIGINATOR     = 

OBJECT_NAME    = H-2A R/B
OBJECT_ID      = 2012-025E
CENTER_NAME    = EARTH
REF_FRAME      = TEME
TIME_SYSTEM    = UTC
MEAN_ELEMENT_THEORY = SGP/SGP4

EPOCH          = 2025-11-24T15:03:52.606080
MEAN_MOTION    = 14.94267857
ECCENTRICITY   = .0043785
INCLINATION    = 98.4578
RA_OF_ASC_NODE = 282.4661
ARG_OF_PERICENTER = 297.5964
MEAN_ANOMALY   = 62.0811

EPHEMERIS_TYPE = 0
CLASSIFICATION_TYPE = U
NORAD_CAT_ID   = 38341
ELEMENT_SET_NO = 999
REV_AT_EPOCH   = 73252
BSTAR          = .43069E-3
MEAN_MOTION_DOT = .4642E-4
MEAN_MOTION_DDOT = 0

