CZ-2D R/B               
1 28738U 05024B   25328.54614581  .00028625  00000+0  47661-3 0  9992
2 28738  97.3644 335.5337 0007967  59.3400 300.8636 15.51954651123433
ALOS (DAICHI)           
1 28931U 06002A   25328.78676198  .00001737  00000+0  30194-3 0  9990
2 28931  98.1068 280.4044 0000758  73.5977 286.5312 14.69403849 58072
H-2A R/B                
1 28932U 06002B   25328.61363058  .00010491  00000+0  56026-3 0  9990
2 28932  98.2313 101.8909 0054412 238.1114 121.4815 15.14041468 78524
RESURS-DK 1             
1 29228U 06021A   25328.77063713  .00003143  00000+0  18868-3 0  9990
2 29228  69.9306 148.2682 0007399 272.0977  87.9342 15.12005668 71668
CZ-4B R/B               
1 29507U 06046C   25328.68055185  .00005508  00000+0  28982-3 0  9996
2 29507  97.5753   8.8686 0032575 271.1684  88.5816 15.15606531 44139
CZ-2C R/B               
1 31114U 07010B   25328.61232050  .00000200  00000+0  11119-3 0  9994
2 31114  98.3970  82.1762 0058077 239.1291 120.4166 14.20198616964803
COSMO-SKYMED 1          
1 31598U 07023A   25328.85864457  .00004349  00000+0  39730-3 0  9999
2 31598  97.8840 154.1427 0001309  91.7801 268.3569 14.95568669999226
COSMOS 2428             
1 31792U 07029A   25328.68488720 -.00000115  00000+0 -35970-4 0  9999
2 31792  70.9371  63.7854 0002693  52.9217 307.2150 14.12886697949260
SL-16 R/B               
1 31793U 07029B   25328.66310992  .00000041  00000+0  46195-4 0  9990
2 31793  70.9778  33.1554 0002352 265.3923 257.3160 14.14816879950519
KORONAS-FOTON           
1 33504U 09003A   25328.63626303  .00014635  00000+0  35757-3 0  9994
2 33504  82.4322  24.8546 0011941 168.4802 191.6720 15.40617320929557
CZ-2C R/B               
1 37731U 11030B   25328.49497355  .00001898  00000+0  24740-3 0  9997
2 37731  97.8390 283.0092 0052380 334.3930 139.8858 14.80807006774527
H-2A R/B                
1 38341U 12025E   25328.62769220  .00004642  00000+0  43069-3 0  9993
2 38341  98.4578 282.4661 0043785 297.5964  62.0811 14.94267857732520
